CTC2_L_00026001-01
1 10000U 22477MZ  26075.70040509  .00000000  00000+0  00000-0 0  9997
2 10000  70.0000   0.0000 0000000   0.0000   0.0000 15.69614517    16
CTC2_L_00026001-02
1 10001U 23835NU  26075.70040509  .00000000  00000+0  00000-0 0  9997
2 10001  70.0000   0.0000 0000000   0.0000  90.0000 15.69614517    16
CTC2_L_00026001-03
1 10002U 24400KM  26075.70040509  .00000000  00000+0  00000-0 0  9997
2 10002  70.0000   0.0000 0000000   0.0000 180.0000 15.69614517    17
CTC2_L_00026001-04
1 10003U 25822NL  26075.70040509  .00000000  00000+0  00000-0 0  9997
2 10003  70.0000   0.0000 0000000   0.0000 270.0000 15.69614517    18
CTC2_L_00026002-01
1 10004U 22238SR  26075.70040509  .00000000  00000+0  00000-0 0  9996
2 10004  70.0000  12.0000 0000000   0.0000  12.0000 15.69614517    16
CTC2_L_00026002-02
1 10005U 22252VD  26075.70040509  .00000000  00000+0  00000-0 0  9993
2 10005  70.0000  12.0000 0000000   0.0000 102.0000 15.69614517    17
CTC2_L_00026002-03
1 10006U 23518HB  26075.70040509  .00000000  00000+0  00000-0 0  9990
2 10006  70.0000  12.0000 0000000   0.0000 192.0000 15.69614517    17
CTC2_L_00026002-04
1 10007U 24612LY  26075.70040509  .00000000  00000+0  00000-0 0  9997
2 10007  70.0000  12.0000 0000000   0.0000 282.0000 15.69614517    18
CTC2_L_00026003-01
1 10008U 23690TM  26075.70040509  .00000000  00000+0  00000-0 0  9993
2 10008  70.0000  24.0000 0000000   0.0000  24.0000 15.69614517    16
CTC2_L_00026003-02
1 10009U 22407FV  26075.70040509  .00000000  00000+0  00000-0 0  9999
2 10009  70.0000  24.0000 0000000   0.0000 114.0000 15.69614517    17
CTC2_L_00026003-03
1 10010U 24286XD  26075.70040509  .00000000  00000+0  00000-0 0  9998
2 10010  70.0000  24.0000 0000000   0.0000 204.0000 15.69614517    19
CTC2_L_00026003-04
1 10011U 22786PQ  26075.70040509  .00000000  00000+0  00000-0 0  9992
2 10011  70.0000  24.0000 0000000   0.0000 294.0000 15.69614517    19
CTC2_L_00026004-01
1 10012U 22250VY  26075.70040509  .00000000  00000+0  00000-0 0  9999
2 10012  70.0000  36.0000 0000000   0.0000  36.0000 15.69614517    17
CTC2_L_00026004-02
1 10013U 25559KG  26075.70040509  .00000000  00000+0  00000-0 0  9995
2 10013  70.0000  36.0000 0000000   0.0000 126.0000 15.69614517    18
CTC2_L_00026004-03
1 10014U 22231XO  26075.70040509  .00000000  00000+0  00000-0 0  9990
2 10014  70.0000  36.0000 0000000   0.0000 216.0000 15.69614517    19
CTC2_L_00026004-04
1 10015U 22043NI  26075.70040509  .00000000  00000+0  00000-0 0  9992
2 10015  70.0000  36.0000 0000000   0.0000 306.0000 15.69614517    10
CTC2_L_00026005-01
1 10016U 25769BI  26075.70040509  .00000000  00000+0  00000-0 0  9991
2 10016  70.0000  48.0000 0000000   0.0000  48.0000 15.69614517    17
CTC2_L_00026005-02
1 10017U 23329OQ  26075.70040509  .00000000  00000+0  00000-0 0  9992
2 10017  70.0000  48.0000 0000000   0.0000 138.0000 15.69614517    18
CTC2_L_00026005-03
1 10018U 25260QC  26075.70040509  .00000000  00000+0  00000-0 0  9999
2 10018  70.0000  48.0000 0000000   0.0000 228.0000 15.69614517    19
CTC2_L_00026005-04
1 10019U 26627XE  26075.70040509  .00000000  00000+0  00000-0 0  9998
2 10019  70.0000  48.0000 0000000   0.0000 318.0000 15.69614517    10
CTC2_L_00026006-01
1 10020U 26185ZV  26075.70040509  .00000000  00000+0  00000-0 0  9999
2 10020  70.0000  60.0000 0000000   0.0000  60.0000 15.69614517    10
CTC2_L_00026006-02
1 10021U 25687FY  26075.70040509  .00000000  00000+0  00000-0 0  9996
2 10021  70.0000  60.0000 0000000   0.0000 150.0000 15.69614517    11
CTC2_L_00026006-03
1 10022U 23566TZ  26075.70040509  .00000000  00000+0  00000-0 0  9991
2 10022  70.0000  60.0000 0000000   0.0000 240.0000 15.69614517    12
CTC2_L_00026006-04
1 10023U 23049XE  26075.70040509  .00000000  00000+0  00000-0 0  9998
2 10023  70.0000  60.0000 0000000   0.0000 330.0000 15.69614517    13
CTC2_L_00026007-01
1 10024U 22950VF  26075.70040509  .00000000  00000+0  00000-0 0  9999
2 10024  70.0000  72.0000 0000000   0.0000  72.0000 15.69614517    10
CTC2_L_00026007-02
1 10025U 23832TK  26075.70040509  .00000000  00000+0  00000-0 0  9990
2 10025  70.0000  72.0000 0000000   0.0000 162.0000 15.69614517    11
CTC2_L_00026007-03
1 10026U 22514UB  26075.70040509  .00000000  00000+0  00000-0 0  9997
2 10026  70.0000  72.0000 0000000   0.0000 252.0000 15.69614517    12
CTC2_L_00026007-04
1 10027U 24946GS  26075.70040509  .00000000  00000+0  00000-0 0  9999
2 10027  70.0000  72.0000 0000000   0.0000 342.0000 15.69614517    13
CTC2_L_00026008-01
1 10028U 25704VU  26075.70040509  .00000000  00000+0  00000-0 0  9993
2 10028  70.0000  84.0000 0000000   0.0000  84.0000 15.69614517    10
CTC2_L_00026008-02
1 10029U 22383QJ  26075.70040509  .00000000  00000+0  00000-0 0  9994
2 10029  70.0000  84.0000 0000000   0.0000 174.0000 15.69614517    11
CTC2_L_00026008-03
1 10030U 22534CH  26075.70040509  .00000000  00000+0  00000-0 0  9994
2 10030  70.0000  84.0000 0000000   0.0000 264.0000 15.69614517    13
CTC2_L_00026008-04
1 10031U 23950YD  26075.70040509  .00000000  00000+0  00000-0 0  9998
2 10031  70.0000  84.0000 0000000   0.0000 354.0000 15.69614517    14
CTC2_L_00026009-01
1 10032U 24914LC  26075.70040509  .00000000  00000+0  00000-0 0  9990
2 10032  70.0000  96.0000 0000000   0.0000  96.0000 15.69614517    11
CTC2_L_00026009-02
1 10033U 24616SZ  26075.70040509  .00000000  00000+0  00000-0 0  9990
2 10033  70.0000  96.0000 0000000   0.0000 186.0000 15.69614517    12
CTC2_L_00026009-03
1 10034U 22746CP  26075.70040509  .00000000  00000+0  00000-0 0  9993
2 10034  70.0000  96.0000 0000000   0.0000 276.0000 15.69614517    13
CTC2_L_00026009-04
1 10035U 26493FS  26075.70040509  .00000000  00000+0  00000-0 0  9997
2 10035  70.0000  96.0000 0000000   0.0000   6.0000 15.69614517    15
CTC2_L_00026010-01
1 10036U 25661T   26075.70040509  .00000000  00000+0  00000-0 0  9994
2 10036  70.0000 108.0000 0000000   0.0000 108.0000 15.69614517    13
CTC2_L_00026010-02
1 10037U 24423QX  26075.70040509  .00000000  00000+0  00000-0 0  9990
2 10037  70.0000 108.0000 0000000   0.0000 198.0000 15.69614517    13
CTC2_L_00026010-03
1 10038U 22132YJ  26075.70040509  .00000000  00000+0  00000-0 0  9996
2 10038  70.0000 108.0000 0000000   0.0000 288.0000 15.69614517    14
CTC2_L_00026010-04
1 10039U 26675RL  26075.70040509  .00000000  00000+0  00000-0 0  9993
2 10039  70.0000 108.0000 0000000   0.0000  18.0000 15.69614517    16
CTC2_L_00026011-01
1 10040U 26464RN  26075.70040509  .00000000  00000+0  00000-0 0  9991
2 10040  70.0000 120.0000 0000000   0.0000 120.0000 15.69614517    16
CTC2_L_00026011-02
1 10041U 26659OA  26075.70040509  .00000000  00000+0  00000-0 0  9998
2 10041  70.0000 120.0000 0000000   0.0000 210.0000 15.69614517    17
CTC2_L_00026011-03
1 10042U 26480JF  26075.70040509  .00000000  00000+0  00000-0 0  9991
2 10042  70.0000 120.0000 0000000   0.0000 300.0000 15.69614517    18
CTC2_L_00026011-04
1 10043U 26345ZK  26075.70040509  .00000000  00000+0  00000-0 0  9992
2 10043  70.0000 120.0000 0000000   0.0000  30.0000 15.69614517    19
CTC2_L_00026012-01
1 10044U 26383DZ  26075.70040509  .00000000  00000+0  00000-0 0  9995
2 10044  70.0000 132.0000 0000000   0.0000 132.0000 15.69614517    16
CTC2_L_00026012-02
1 10045U 23795ZM  26075.70040509  .00000000  00000+0  00000-0 0  9990
2 10045  70.0000 132.0000 0000000   0.0000 222.0000 15.69614517    17
CTC2_L_00026012-03
1 10046U 25267TF  26075.70040509  .00000000  00000+0  00000-0 0  9997
2 10046  70.0000 132.0000 0000000   0.0000 312.0000 15.69614517    18
CTC2_L_00026012-04
1 10047U 23499ZZ  26075.70040509  .00000000  00000+0  00000-0 0  9993
2 10047  70.0000 132.0000 0000000   0.0000  42.0000 15.69614517    19
CTC2_L_00026013-01
1 10048U 26309TP  26075.70040509  .00000000  00000+0  00000-0 0  9997
2 10048  70.0000 144.0000 0000000   0.0000 144.0000 15.69614517    16
CTC2_L_00026013-02
1 10049U 24933KE  26075.70040509  .00000000  00000+0  00000-0 0  9999
2 10049  70.0000 144.0000 0000000   0.0000 234.0000 15.69614517    17
CTC2_L_00026013-03
1 10050U 26840Y   26075.70040509  .00000000  00000+0  00000-0 0  9990
2 10050  70.0000 144.0000 0000000   0.0000 324.0000 15.69614517    19
CTC2_L_00026013-04
1 10051U 23968BL  26075.70040509  .00000000  00000+0  00000-0 0  9999
2 10051  70.0000 144.0000 0000000   0.0000  54.0000 15.69614517    10
CTC2_L_00026014-01
1 10052U 23804SJ  26075.70040509  .00000000  00000+0  00000-0 0  9999
2 10052  70.0000 156.0000 0000000   0.0000 156.0000 15.69614517    17
CTC2_L_00026014-02
1 10053U 25843XA  26075.70040509  .00000000  00000+0  00000-0 0  9995
2 10053  70.0000 156.0000 0000000   0.0000 246.0000 15.69614517    18
CTC2_L_00026014-03
1 10054U 24112MA  26075.70040509  .00000000  00000+0  00000-0 0  9994
2 10054  70.0000 156.0000 0000000   0.0000 336.0000 15.69614517    19
CTC2_L_00026014-04
1 10055U 24891AJ  26075.70040509  .00000000  00000+0  00000-0 0  9999
2 10055  70.0000 156.0000 0000000   0.0000  66.0000 15.69614517    10
CTC2_L_00026015-01
1 10056U 26939CZ  26075.70040509  .00000000  00000+0  00000-0 0  9995
2 10056  70.0000 168.0000 0000000   0.0000 168.0000 15.69614517    17
CTC2_L_00026015-02
1 10057U 24665QP  26075.70040509  .00000000  00000+0  00000-0 0  9990
2 10057  70.0000 168.0000 0000000   0.0000 258.0000 15.69614517    18
CTC2_L_00026015-03
1 10058U 26002GC  26075.70040509  .00000000  00000+0  00000-0 0  9998
2 10058  70.0000 168.0000 0000000   0.0000 348.0000 15.69614517    19
CTC2_L_00026015-04
1 10059U 22872QH  26075.70040509  .00000000  00000+0  00000-0 0  9990
2 10059  70.0000 168.0000 0000000   0.0000  78.0000 15.69614517    10
CTC2_L_00026016-01
1 10060U 26725IX  26075.70040509  .00000000  00000+0  00000-0 0  9993
2 10060  70.0000 180.0000 0000000   0.0000 180.0000 15.69614517    10
CTC2_L_00026016-02
1 10061U 22940NG  26075.70040509  .00000000  00000+0  00000-0 0  9999
2 10061  70.0000 180.0000 0000000   0.0000 270.0000 15.69614517    11
